[{"OBJECT_NAME":"SEEDS II (CO-66)","OBJECT_ID":"2008-021J","EPOCH":"2026-03-09T22:06:22.421376","MEAN_MOTION":15.29097236,"ECCENTRICITY":0.00014475,"INCLINATION":97.7519,"RA_OF_ASC_NODE":62.3611,"ARG_OF_PERICENTER":359.2618,"MEAN_ANOMALY":0.8619,"EPHEMERIS_TYPE":0,"CLASSIFICATION_TYPE":"U","NORAD_CAT_ID":32791,"ELEMENT_SET_NO":999,"REV_AT_EPOCH":97210,"BSTAR":0.00084213052,"MEAN_MOTION_DOT":0.00023758,"MEAN_MOTION_DDOT":0},{"OBJECT_NAME":"STARLINK-34138","OBJECT_ID":"2025-099V","EPOCH":"2026-03-09T08:14:14.542368","MEAN_MOTION":15.27596925,"ECCENTRICITY":0.00043067,"INCLINATION":43.001,"RA_OF_ASC_NODE":174.6815,"ARG_OF_PERICENTER":288.6513,"MEAN_ANOMALY":71.3871,"EPHEMERIS_TYPE":0,"CLASSIFICATION_TYPE":"U","NORAD_CAT_ID":63971,"ELEMENT_SET_NO":999,"REV_AT_EPOCH":4732,"BSTAR":0.001031966,"MEAN_MOTION_DOT":0.00028264,"MEAN_MOTION_DDOT":0}]
